ONEWEB-0128             
1 47274U 20100S   25209.86162308  .00000384  00000+0  10332-2 0  9994
2 47274  87.8856  54.9851 0001931  79.5169 280.6177 13.12442777222332
ONEWEB-0129             
1 47275U 20100T   25209.84053034 -.00000208  00000+0 -61418-3 0  9997
2 47275  87.8860  54.9318 0001252  42.5123 317.6102 13.12443671222267
ONEWEB-0130             
1 47276U 20100U   25209.86811086  .00000504  00000+0  13644-2 0  9993
2 47276  87.8847  54.9265 0001792  81.7509 278.3822 13.12445360222232
ONEWEB-0131             
1 47277U 20100V   25209.63616096  .00000543  00000+0  14732-2 0  9995
2 47277  87.8851  54.9995 0001867  84.6150 275.5191 13.12443026222241
ONEWEB-0132             
1 47278U 20100W   25209.58911069 -.00000297  00000+0 -86183-3 0  9996
2 47278  87.8858  55.0109 0001889  90.5224 269.6121 13.12442239222130
ONEWEB-0133             
1 47279U 20100X   25209.60519136 -.00000336  00000+0 -97008-3 0  9991
2 47279  87.8845  54.9828 0001923  83.4228 276.7119 13.12444162222297
ONEWEB-0134             
1 47280U 20100Y   25209.80322199  .00000257  00000+0  67768-3 0  9996
2 47280  87.8848  54.9268 0001844  77.6846 282.4489 13.12441194222299
ONEWEB-0135             
1 47281U 20100Z   25210.07897702 -.00000009  00000+0 -59038-4 0  9994
2 47281  87.8854  54.9107 0002072  75.1725 284.9633 13.12443487222354
